[{"OBJECT_NAME":"STARLINK-31979","OBJECT_ID":"2024-107V","EPOCH":"2026-03-09T09:58:48.257184","MEAN_MOTION":15.30195169,"ECCENTRICITY":0.00012876,"INCLINATION":53.1614,"RA_OF_ASC_NODE":66.8623,"ARG_OF_PERICENTER":83.2494,"MEAN_ANOMALY":276.8654,"EPHEMERIS_TYPE":0,"CLASSIFICATION_TYPE":"U","NORAD_CAT_ID":59964,"ELEMENT_SET_NO":999,"REV_AT_EPOCH":9970,"BSTAR":2.3340647e-5,"MEAN_MOTION_DOT":3.32e-6,"MEAN_MOTION_DDOT":0},{"OBJECT_NAME":"ASRTU-1 (AO-123)","OBJECT_ID":"2024-199AY","EPOCH":"2026-03-09T22:36:42.151392","MEAN_MOTION":15.34070057,"ECCENTRICITY":0.0012786,"INCLINATION":97.3152,"RA_OF_ASC_NODE":298.5256,"ARG_OF_PERICENTER":309.3392,"MEAN_ANOMALY":50.6717,"EPHEMERIS_TYPE":0,"CLASSIFICATION_TYPE":"U","NORAD_CAT_ID":61781,"ELEMENT_SET_NO":999,"REV_AT_EPOCH":11870,"BSTAR":0.00032267684,"MEAN_MOTION_DOT":0.00010589,"MEAN_MOTION_DDOT":0}]
